ONEWEB-0098             
1 45442U 20020U   25345.19977529  .00000505  00000+0  13892-2 0  9995
2 45442  87.8865  58.4967 0001719 100.3711 259.7611 13.11415941278001
ONEWEB-0055             
1 45443U 20020V   25345.18280897  .00000173  00000+0  45179-3 0  9995
2 45443  87.8871  58.5008 0001699 102.0491 258.0828 13.11420787277978
ONEWEB-0093             
1 45444U 20020W   25345.15836830 -.00000465  00000+0 -13469-2 0  9999
2 45444  87.8869  58.4927 0002068 111.5965 248.5383 13.11415992278037
ONEWEB-0029             
1 45445U 20020X   25345.17433656 -.00000155  00000+0 -47377-3 0  9993
2 45445  87.8868  58.5017 0001861 103.5620 256.5715 13.11418557278013
ONEWEB-0068             
1 45446U 20020Y   25345.15809567 -.00000458  00000+0 -13285-2 0  9996
2 45446  87.8868  58.4946 0001923 103.9510 256.1832 13.11417471277957
ONEWEB-0046             
1 45447U 20020Z   25343.16592577  .00011790  00000+0  33142-1 0  9998
2 45447  87.8864  58.8989 0002304  89.7730 270.3662 13.11512698277703
ONEWEB-0063             
1 45448U 20020AA  25345.17859235 -.00001029  00000+0 -29390-2 0  9996
2 45448  87.8873  58.4955 0001595 112.2656 247.8641 13.11408151278056
ONEWEB-0019             
1 45449U 20020AB  25345.22512530 -.00000187  00000+0 -55973-3 0  9998
2 45449  87.8855  58.4945 0001738  98.9958 261.1367 13.11989946277903
